[
  {
    "COMMENT": "GENERATED VIA SPACETRACK.ORG API",
    "ORIGINATOR": "18 SPCS",
    "NORAD_CAT_ID": "20436",
    "OBJECT_NAME": "SPOT 2",
    "OBJECT_TYPE": "PAYLOAD",
    "CLASSIFICATION_TYPE": "U",
    "INTLDES": "90005A",
    "EPOCH": "2023-04-20 03:01:35",
    "EPOCH_MICROSECONDS": "992128",
    "MEAN_MOTION": "14.67930383",
    "ECCENTRICITY": "0.0142998",
    "INCLINATION": "98.666",
    "RA_OF_ASC_NODE": "178.0232",
    "ARG_OF_PERICENTER": "104.7938",
    "MEAN_ANOMALY": "256.9158",
    "EPHEMERIS_TYPE": "0",
    "ELEMENT_SET_NO": "999",
    "REV_AT_EPOCH": "74567",
    "BSTAR": "0.00050412",
    "MEAN_MOTION_DOT": "0.00003306",
    "MEAN_MOTION_DDOT": "0",
    "FILE": "3890744",
    "TLE_LINE0": "0 SPOT 2",
    "TLE_LINE1": "1 20436U 90005A   23110.12611102  .00003306  00000-0  50412-3 0  9997",
    "TLE_LINE2": "2 20436  98.6660 178.0232 0142998 104.7938 256.9158 14.67930383745679",
    "OBJECT_ID": "1990-005A",
    "OBJECT_NUMBER": "20436",
    "SEMIMAJOR_AXIS": "7045.820",
    "PERIOD": "98.097",
    "APOGEE": "768.439",
    "PERIGEE": "566.931",
    "DECAYED": "0"
  },
  {
    "COMMENT": "GENERATED VIA SPACETRACK.ORG API",
    "ORIGINATOR": "18 SPCS",
    "NORAD_CAT_ID": "20436",
    "OBJECT_NAME": "SPOT 2",
    "OBJECT_TYPE": "PAYLOAD",
    "CLASSIFICATION_TYPE": "U",
    "INTLDES": "90005A",
    "EPOCH": "2023-04-20 04:39:45",
    "EPOCH_MICROSECONDS": "341856",
    "MEAN_MOTION": "14.67929615",
    "ECCENTRICITY": "0.0142994",
    "INCLINATION": "98.6661",
    "RA_OF_ASC_NODE": "178.0954",
    "ARG_OF_PERICENTER": "104.5852",
    "MEAN_ANOMALY": "257.1257",
    "EPHEMERIS_TYPE": "0",
    "ELEMENT_SET_NO": "999",
    "REV_AT_EPOCH": "74566",
    "BSTAR": "0.00043126",
    "MEAN_MOTION_DOT": "0.00002819",
    "MEAN_MOTION_DDOT": "0",
    "FILE": "3890827",
    "TLE_LINE0": "0 SPOT 2",
    "TLE_LINE1": "1 20436U 90005A   23110.19427479  .00002819  00000-0  43126-3 0  9998",
    "TLE_LINE2": "2 20436  98.6661 178.0954 0142994 104.5852 257.1257 14.67929615745668",
    "OBJECT_ID": "1990-005A",
    "OBJECT_NUMBER": "20436",
    "SEMIMAJOR_AXIS": "7045.822",
    "PERIOD": "98.097",
    "APOGEE": "768.438",
    "PERIGEE": "566.936",
    "DECAYED": "0"
  },
  {
    "COMMENT": "GENERATED VIA SPACETRACK.ORG API",
    "ORIGINATOR": "18 SPCS",
    "NORAD_CAT_ID": "20436",
    "OBJECT_NAME": "SPOT 2",
    "OBJECT_TYPE": "PAYLOAD",
    "CLASSIFICATION_TYPE": "U",
    "INTLDES": "90005A",
    "EPOCH": "2023-04-20 19:23:09",
    "EPOCH_MICROSECONDS": "314880",
    "MEAN_MOTION": "14.67932833",
    "ECCENTRICITY": "0.0142994",
    "INCLINATION": "98.666",
    "RA_OF_ASC_NODE": "178.7448",
    "ARG_OF_PERICENTER": "102.6886",
    "MEAN_ANOMALY": "259.0345",
    "EPHEMERIS_TYPE": "0",
    "ELEMENT_SET_NO": "999",
    "REV_AT_EPOCH": "74575",
    "BSTAR": "0.00041977",
    "MEAN_MOTION_DOT": "0.00002742",
    "MEAN_MOTION_DDOT": "0",
    "FILE": "3891109",
    "TLE_LINE0": "0 SPOT 2",
    "TLE_LINE1": "1 20436U 90005A   23110.80774670  .00002742  00000-0  41977-3 0  9991",
    "TLE_LINE2": "2 20436  98.6660 178.7448 0142994 102.6886 259.0345 14.67932833745753",
    "OBJECT_ID": "1990-005A",
    "OBJECT_NUMBER": "20436",
    "SEMIMAJOR_AXIS": "7045.812",
    "PERIOD": "98.097",
    "APOGEE": "768.428",
    "PERIGEE": "566.926",
    "DECAYED": "0"
  },
  {
    "COMMENT": "GENERATED VIA SPACETRACK.ORG API",
    "ORIGINATOR": "18 SPCS",
    "NORAD_CAT_ID": "20436",
    "OBJECT_NAME": "SPOT 2",
    "OBJECT_TYPE": "PAYLOAD",
    "CLASSIFICATION_TYPE": "U",
    "INTLDES": "90005A",
    "EPOCH": "2023-04-21 05:12:05",
    "EPOCH_MICROSECONDS": "218848",
    "MEAN_MOTION": "14.67934634",
    "ECCENTRICITY": "0.0142968",
    "INCLINATION": "98.6658",
    "RA_OF_ASC_NODE": "179.1777",
    "ARG_OF_PERICENTER": "101.424",
    "MEAN_ANOMALY": "260.306",
    "EPHEMERIS_TYPE": "0",
    "ELEMENT_SET_NO": "999",
    "REV_AT_EPOCH": "74583",
    "BSTAR": "0.00039065",
    "MEAN_MOTION_DOT": "0.00002548",
    "MEAN_MOTION_DDOT": "0",
    "FILE": "3891280",
    "TLE_LINE0": "0 SPOT 2",
    "TLE_LINE1": "1 20436U 90005A   23111.21672707  .00002548  00000-0  39065-3 0  9994",
    "TLE_LINE2": "2 20436  98.6658 179.1777 0142968 101.4240 260.3060 14.67934634745831",
    "OBJECT_ID": "1990-005A",
    "OBJECT_NUMBER": "20436",
    "SEMIMAJOR_AXIS": "7045.806",
    "PERIOD": "98.097",
    "APOGEE": "768.404",
    "PERIGEE": "566.939",
    "DECAYED": "0"
  },
  {
    "COMMENT": "GENERATED VIA SPACETRACK.ORG API",
    "ORIGINATOR": "18 SPCS",
    "NORAD_CAT_ID": "20436",
    "OBJECT_NAME": "SPOT 2",
    "OBJECT_TYPE": "PAYLOAD",
    "CLASSIFICATION_TYPE": "U",
    "INTLDES": "90005A",
    "EPOCH": "2023-04-21 10:06:33",
    "EPOCH_MICROSECONDS": "144480",
    "MEAN_MOTION": "14.67935771",
    "ECCENTRICITY": "0.0142959",
    "INCLINATION": "98.6658",
    "RA_OF_ASC_NODE": "179.3942",
    "ARG_OF_PERICENTER": "100.7902",
    "MEAN_ANOMALY": "260.943",
    "EPHEMERIS_TYPE": "0",
    "ELEMENT_SET_NO": "999",
    "REV_AT_EPOCH": "74584",
    "BSTAR": "0.00039183",
    "MEAN_MOTION_DOT": "0.00002556",
    "MEAN_MOTION_DDOT": "0",
    "FILE": "3891529",
    "TLE_LINE0": "0 SPOT 2",
    "TLE_LINE1": "1 20436U 90005A   23111.42121695  .00002556  00000-0  39183-3 0  9992",
    "TLE_LINE2": "2 20436  98.6658 179.3942 0142959 100.7902 260.9430 14.67935771745845",
    "OBJECT_ID": "1990-005A",
    "OBJECT_NUMBER": "20436",
    "SEMIMAJOR_AXIS": "7045.803",
    "PERIOD": "98.097",
    "APOGEE": "768.394",
    "PERIGEE": "566.942",
    "DECAYED": "0"
  },
  {
    "COMMENT": "GENERATED VIA SPACETRACK.ORG API",
    "ORIGINATOR": "18 SPCS",
    "NORAD_CAT_ID": "20436",
    "OBJECT_NAME": "SPOT 2",
    "OBJECT_TYPE": "PAYLOAD",
    "CLASSIFICATION_TYPE": "U",
    "INTLDES": "90005A",
    "EPOCH": "2023-04-21 19:55:28",
    "EPOCH_MICROSECONDS": "920576",
    "MEAN_MOTION": "14.67938771",
    "ECCENTRICITY": "0.0142978",
    "INCLINATION": "98.6656",
    "RA_OF_ASC_NODE": "179.8272",
    "ARG_OF_PERICENTER": "99.5206",
    "MEAN_ANOMALY": "262.2188",
    "EPHEMERIS_TYPE": "0",
    "ELEMENT_SET_NO": "999",
    "REV_AT_EPOCH": "74590",
    "BSTAR": "0.00041907",
    "MEAN_MOTION_DOT": "0.00002738",
    "MEAN_MOTION_DDOT": "0",
    "FILE": "3891716",
    "TLE_LINE0": "0 SPOT 2",
    "TLE_LINE1": "1 20436U 90005A   23111.83019584  .00002738  00000-0  41907-3 0  9999",
    "TLE_LINE2": "2 20436  98.6656 179.8272 0142978  99.5206 262.2188 14.67938771745902",
    "OBJECT_ID": "1990-005A",
    "OBJECT_NUMBER": "20436",
    "SEMIMAJOR_AXIS": "7045.793",
    "PERIOD": "98.097",
    "APOGEE": "768.397",
    "PERIGEE": "566.919",
    "DECAYED": "0"
  },
  {
    "COMMENT": "GENERATED VIA SPACETRACK.ORG API",
    "ORIGINATOR": "18 SPCS",
    "NORAD_CAT_ID": "20436",
    "OBJECT_NAME": "SPOT 2",
    "OBJECT_TYPE": "PAYLOAD",
    "CLASSIFICATION_TYPE": "U",
    "INTLDES": "90005A",
    "EPOCH": "2023-04-22 22:05:57",
    "EPOCH_MICROSECONDS": "341184",
    "MEAN_MOTION": "14.67944389",
    "ECCENTRICITY": "0.014294",
    "INCLINATION": "98.6651",
    "RA_OF_ASC_NODE": "180.9817",
    "ARG_OF_PERICENTER": "96.1526",
    "MEAN_ANOMALY": "265.5984",
    "EPHEMERIS_TYPE": "0",
    "ELEMENT_SET_NO": "999",
    "REV_AT_EPOCH": "74608",
    "BSTAR": "0.00038477",
    "MEAN_MOTION_DOT": "0.00002509",
    "MEAN_MOTION_DDOT": "0",
    "FILE": "3892233",
    "TLE_LINE0": "0 SPOT 2",
    "TLE_LINE1": "1 20436U 90005A   23112.92080256  .00002509  00000-0  38477-3 0  9998",
    "TLE_LINE2": "2 20436  98.6651 180.9817 0142940  96.1526 265.5984 14.67944389746084",
    "OBJECT_ID": "1990-005A",
    "OBJECT_NUMBER": "20436",
    "SEMIMAJOR_AXIS": "7045.775",
    "PERIOD": "98.096",
    "APOGEE": "768.352",
    "PERIGEE": "566.928",
    "DECAYED": "0"
  },
  {
    "COMMENT": "GENERATED VIA SPACETRACK.ORG API",
    "ORIGINATOR": "18 SPCS",
    "NORAD_CAT_ID": "20436",
    "OBJECT_NAME": "SPOT 2",
    "OBJECT_TYPE": "PAYLOAD",
    "CLASSIFICATION_TYPE": "U",
    "INTLDES": "90005A",
    "EPOCH": "2023-04-22 22:05:57",
    "EPOCH_MICROSECONDS": "341184",
    "MEAN_MOTION": "14.67944389",
    "ECCENTRICITY": "0.014294",
    "INCLINATION": "98.6651",
    "RA_OF_ASC_NODE": "180.9817",
    "ARG_OF_PERICENTER": "96.1526",
    "MEAN_ANOMALY": "265.5984",
    "EPHEMERIS_TYPE": "0",
    "ELEMENT_SET_NO": "999",
    "REV_AT_EPOCH": "74606",
    "BSTAR": "0.00038477",
    "MEAN_MOTION_DOT": "0.00002509",
    "MEAN_MOTION_DDOT": "0",
    "FILE": "3892285",
    "TLE_LINE0": "0 SPOT 2",
    "TLE_LINE1": "1 20436U 90005A   23112.92080256  .00002509  00000-0  38477-3 0  9998",
    "TLE_LINE2": "2 20436  98.6651 180.9817 0142940  96.1526 265.5984 14.67944389746062",
    "OBJECT_ID": "1990-005A",
    "OBJECT_NUMBER": "20436",
    "SEMIMAJOR_AXIS": "7045.775",
    "PERIOD": "98.096",
    "APOGEE": "768.352",
    "PERIGEE": "566.928",
    "DECAYED": "0"
  },
  {
    "COMMENT": "GENERATED VIA SPACETRACK.ORG API",
    "ORIGINATOR": "18 SPCS",
    "NORAD_CAT_ID": "20436",
    "OBJECT_NAME": "SPOT 2",
    "OBJECT_TYPE": "PAYLOAD",
    "CLASSIFICATION_TYPE": "U",
    "INTLDES": "90005A",
    "EPOCH": "2023-04-23 06:16:43",
    "EPOCH_MICROSECONDS": "656960",
    "MEAN_MOTION": "14.67946642",
    "ECCENTRICITY": "0.0142941",
    "INCLINATION": "98.6651",
    "RA_OF_ASC_NODE": "181.3425",
    "ARG_OF_PERICENTER": "95.091",
    "MEAN_ANOMALY": "266.6625",
    "EPHEMERIS_TYPE": "0",
    "ELEMENT_SET_NO": "999",
    "REV_AT_EPOCH": "74611",
    "BSTAR": "0.0004077",
    "MEAN_MOTION_DOT": "0.00002662",
    "MEAN_MOTION_DDOT": "0",
    "FILE": "3892688",
    "TLE_LINE0": "0 SPOT 2",
    "TLE_LINE1": "1 20436U 90005A   23113.26161640  .00002662  00000-0  40770-3 0  9992",
    "TLE_LINE2": "2 20436  98.6651 181.3425 0142941  95.0910 266.6625 14.67946642746112",
    "OBJECT_ID": "1990-005A",
    "OBJECT_NUMBER": "20436",
    "SEMIMAJOR_AXIS": "7045.768",
    "PERIOD": "98.096",
    "APOGEE": "768.346",
    "PERIGEE": "566.920",
    "DECAYED": "0"
  }
]